[{"OBJECT_NAME":"STARLINK-5487","OBJECT_ID":"2023-021AA","EPOCH":"2026-03-09T16:39:13.019616","MEAN_MOTION":14.98333844,"ECCENTRICITY":0.00031461,"INCLINATION":70.0013,"RA_OF_ASC_NODE":184.3814,"ARG_OF_PERICENTER":267.4295,"MEAN_ANOMALY":92.6504,"EPHEMERIS_TYPE":0,"CLASSIFICATION_TYPE":"U","NORAD_CAT_ID":55652,"ELEMENT_SET_NO":999,"REV_AT_EPOCH":16879,"BSTAR":3.2877177e-5,"MEAN_MOTION_DOT":2.99e-6,"MEAN_MOTION_DDOT":0},{"OBJECT_NAME":"FENGYUN 1C DEB","OBJECT_ID":"1999-025RK","EPOCH":"2026-03-09T17:38:14.291232","MEAN_MOTION":14.95383795,"ECCENTRICITY":0.00371964,"INCLINATION":98.9196,"RA_OF_ASC_NODE":352.1506,"ARG_OF_PERICENTER":284.0168,"MEAN_ANOMALY":136.3268,"EPHEMERIS_TYPE":0,"CLASSIFICATION_TYPE":"U","NORAD_CAT_ID":30106,"ELEMENT_SET_NO":999,"REV_AT_EPOCH":99840,"BSTAR":0.0053227568,"MEAN_MOTION_DOT":0.0005999,"MEAN_MOTION_DDOT":0}]
